[{"OBJECT_NAME":"CENTAURI-1","OBJECT_ID":"2018-099BD","EPOCH":"2026-03-09T22:09:49.248288","MEAN_MOTION":15.15253131,"ECCENTRICITY":0.00131381,"INCLINATION":97.4356,"RA_OF_ASC_NODE":122.787,"ARG_OF_PERICENTER":317.3233,"MEAN_ANOMALY":42.6978,"EPHEMERIS_TYPE":0,"CLASSIFICATION_TYPE":"U","NORAD_CAT_ID":43809,"ELEMENT_SET_NO":999,"REV_AT_EPOCH":39746,"BSTAR":0.00036885866,"MEAN_MOTION_DOT":6.886e-5,"MEAN_MOTION_DDOT":0},{"OBJECT_NAME":"STARLINK-6375","OBJECT_ID":"2023-099Q","EPOCH":"2026-03-09T22:00:01.999584","MEAN_MOTION":15.14521193,"ECCENTRICITY":0.00010633,"INCLINATION":42.9989,"RA_OF_ASC_NODE":246.9587,"ARG_OF_PERICENTER":268.74,"MEAN_ANOMALY":316.4997,"EPHEMERIS_TYPE":0,"CLASSIFICATION_TYPE":"U","NORAD_CAT_ID":57342,"ELEMENT_SET_NO":999,"REV_AT_EPOCH":573,"BSTAR":0.0068816451,"MEAN_MOTION_DOT":0.00131219,"MEAN_MOTION_DDOT":0}]
